STAR ONE C2             
1 32768U 08018B   23353.51933788 -.00000267  00000+0  00000+0 0  9997
2 32768   0.0287 339.2854 0002663 292.2565 298.2788  1.00272739 57532
AMOS-3                  
1 32794U 08022A   23353.36924351 -.00000026  00000+0  00000+0 0  9993
2 32794   0.0508 104.0101 0002532 130.0590 342.4583  1.00271623 73200
GALAXY 18 (G-18)        
1 32951U 08024A   23353.50604910  .00000034  00000+0  00000+0 0  9990
2 32951   0.0177   9.4627 0003083 257.9926 239.5605  1.00270969 36721
CHINASAT 9 (ZX 9)       
1 33051U 08028A   23353.53549848 -.00000238  00000+0  00000+0 0  9994
2 33051   0.0278  92.5174 0004593 189.8697  90.4643  1.00269721 56902
SKYNET 5C               
1 33055U 08030A   23353.44191525 -.00000131  00000+0  00000+0 0  9998
2 33055   1.4413  87.0291 0003825 183.9234 318.0977  1.00271255 56825
TURKSAT 3A              
1 33056U 08030B   23353.47480050  .00000155  00000+0  00000+0 0  9991
2 33056   0.0567 111.5614 0003157 146.3186  42.8366  1.00269544 43222
INTELSAT 25 (IS-25)     
1 33153U 08034A   23353.51021528 -.00000215  00000+0  00000+0 0  9997
2 33153   0.3518  90.9223 0002991 176.5463 332.5573  1.00271801 56562
BADR-6                  
1 33154U 08034B   23353.30737806  .00000153  00000+0  00000+0 0  9998
2 33154   0.4926  86.7599 0003093 280.5123 216.9995  1.00269866 56627
ECHOSTAR 11             
1 33207U 08035A   23353.49455382 -.00000047  00000+0  00000+0 0  9997
2 33207   0.0192  52.9464 0002685 200.8771 262.0514  1.00270270 42099
SUPERBIRD-C2            
1 33274U 08038A   23353.59064289 -.00000242  00000+0  00000+0 0  9994
2 33274   0.0206  77.7097 0000816 166.3875 200.4358  1.00272041 96595
AMC-21                  
1 33275U 08038B   23353.50604910  .00000045  00000+0  00000+0 0  9997
2 33275   0.5906  92.7555 0003466 181.6630 230.7015  1.00270858 56368
INMARSAT 4-F3           
1 33278U 08039A   23353.50140539 -.00000133  00000+0  00000+0 0  9992
2 33278   3.5826  25.7190 0002976 245.9649 258.6579  1.00271806 37418
NIMIQ 4                 
1 33373U 08044A   23353.51082366 -.00000211  00000+0  00000+0 0  9995
2 33373   0.0017   2.5293 0002413 278.9922 268.2372  1.00272197 55851
GALAXY 19 (G-19)        
1 33376U 08045A   23353.41893400 -.00000130  00000+0  00000+0 0  9997
2 33376   0.0185  15.8970 0002785 247.5536 238.1158  1.00270251 55772
ASTRA 1M                
1 33436U 08057A   23353.30607272  .00000128  00000+0  00000+0 0  9991
2 33436   0.0109  32.1244 0003036 172.5708  12.3530  1.00266650 36604
CIEL-2                  
1 33453U 08063A   23353.53880935  .00000067  00000+0  00000+0 0  9993
2 33453   0.4077  93.2809 0002780 175.2308 244.4879  1.00271329 55005
EUTELSAT HOTBIRD 13C    
1 33459U 08065A   23353.49910368 -.00000091  00000+0  00000+0 0  9998
2 33459   0.5972  88.0322 0005228 177.7060 349.2841  1.00270660 38214
FENGYUN 2E              
1 33463U 08066A   23352.86136704 -.00000197  00000+0  00000+0 0  9995
2 33463   7.1380  61.6575 0001603 255.8092 166.5166  1.00267452 54963
EXPRESS-AM44            
1 33595U 09007A   23353.44330763 -.00000080  00000+0  00000+0 0  9994
2 33595   1.1097  89.2597 0004553 176.1115 330.9992  1.00270831 43154
NSS-9                   
1 33749U 09008A   23353.56090840  .00000080  00000+0  00000+0 0  9997
2 33749   0.0172 338.9152 0002200 281.5791 212.4093  1.00269576 54394
EUTELSAT 33E            
1 33750U 09008B   23353.43965267 -.00000226  00000+0  00000+0 0  9992
2 33750   0.3163  89.3471 0004525 182.7480 304.7404  1.00048128 54310
TELSTAR 11N             
1 34111U 09009A   23353.50956571 -.00000242  00000+0  00000+0 0  9999
2 34111   0.0181  19.5357 0002489 240.4740 333.7382  1.00269510 37100
EUTELSAT 10A            
1 34710U 09016A   23353.57757733 -.00000188  00000+0  00000+0 0  9997
2 34710   0.6311  91.2990 0004945 117.9551 248.9916  0.98122168 32112
WGS F2 (USA 204)        
1 34713U 09017A   23353.45697021  .00000077  00000+0  00000+0 0  9997
2 34713   0.0153   8.8248 0000295 263.5359  37.4441  1.00268948 36480
SES-7 (PROTOSTAR 2)     
1 34941U 09027A   23353.60271491 -.00000336  00000+0  00000+0 0  9996
2 34941   0.0348  62.8371 0002184 210.2524 140.0707  1.00269468 53481
MEASAT-3A               
1 35362U 09032A   23353.53532444 -.00000233  00000+0  00000+0 0  9996
2 35362   0.0442 194.5797 0003192  48.4751 129.0394  1.00272118 53117
GOES 14                 
1 35491U 09033A   23353.49530792 -.00000056  00000+0  00000+0 0  9992
2 35491   0.1487 254.2173 0000834 305.5121 317.8027  1.00271120 52975
FM-5                    
1 35493U 09034A   23353.50807153 -.00000191  00000+0  00000+0 0  9995
2 35493   0.0184 333.8027 0000855 217.6737 353.1501  1.00270158 37514
TERRESTAR-1             
1 35496U 09035A   23353.49400295 -.00000049  00000+0  00000+0 0  9995
2 35496   4.0913  46.2645 0003087 226.3657 242.0387  1.00271729 53005
ASIASAT 5               
1 35696U 09042A   23353.59928744 -.00000298  00000+0  00000+0 0  9996
2 35696   0.0342  65.3540 0001593 236.7194 102.1325  1.00263462 52570
JCSAT-12 (JCSAT-RA)     
1 35755U 09044A   23353.58700022 -.00000319  00000+0  00000+0 0  9994
2 35755   0.0246  83.0601 0000236  48.4052 299.8263  1.00270063 52477
OPTUS D3                
1 35756U 09044B   23353.57757733 -.00000138  00000+0  00000+0 0  9994
2 35756   0.0304  16.7602 0003457 267.3297 167.7537  1.00271339 52438
NIMIQ 5                 
1 35873U 09050A   23353.50265715 -.00000248  00000+0  00000+0 0  9990
2 35873   0.0334 281.9373 0002949 338.9521 295.2178  1.00269857 52229
AMAZONAS 2              
1 35942U 09054A   23353.21844076 -.00000273  00000+0  00000+0 0  9990
2 35942   0.0582 116.2045 0002690 107.3029 241.6974  1.00269829 52050
COMSATBW-1              
1 35943U 09054B   23353.45801448  .00000033  00000+0  00000+0 0  9996
2 35943   0.0410  40.9048 0003307 227.8823  46.9008  1.00269392 52164
NSS-12                  
1 36032U 09058A   23353.52844964  .00000080  00000+0  00000+0 0  9990
2 36032   0.0127  15.2395 0002672 252.0828  67.7812  1.00271349 51784
THOR 6                  
1 36033U 09058B   23353.44493653 -.00000001  00000+0  00000+0 0  9991
2 36033   0.0206 104.7416 0001921 179.1830 323.1829  1.00270181 51879
INTELSAT 14 (IS-14)     
1 36097U 09064A   23353.51577215 -.00000264  00000+0  00000+0 0  9994
2 36097   0.0171 310.1877 0002493 321.2051 317.1420  1.00270708 51475
EUTELSAT 36B            
1 36101U 09065A   23353.56160538  .00000164  00000+0  00000+0 0  9990
2 36101   0.0860  41.2318 0005460 230.8244  53.9216  1.00273503 51580
INTELSAT 15 (IS-15)     
1 36106U 09067A   23353.53410612 -.00000176  00000+0  00000+0 0  9999
2 36106   0.0187   9.4299 0001999 270.1522  85.7148  1.00268992 32098
WGS F3 (USA 211)        
1 36108U 09068A   23353.51577215 -.00000259  00000+0  00000+0 0  9995
2 36108   0.1485  92.6352 0000810 123.1344  14.9539  1.00269393 37477
DIRECTV 12              
1 36131U 09075A   23353.50049497 -.00000094  00000+0  00000+0 0  9991
2 36131   0.0480 161.1698 0000590 357.2016   6.9214  1.00269335 37436
BEIDOU-2 G1             
1 36287U 10001A   23353.58992013 -.00000273  00000+0  00000+0 0  9992
2 36287   2.2298  55.0021 0004700 278.9361 106.8135  1.00269873 51041
RADUGA-1M 2             
1 36358U 10002A   23353.53401910 -.00000176  00000+0  00000+0 0  9990
2 36358   1.2517  90.9229 0003136 156.2329 117.9470  1.00273529 40951
SDO                     
1 36395U 10005A   23353.30188069 -.00000064  00000+0  00000+0 0  9992
2 36395  32.7541 100.4338 0002629 200.0333 153.8628  1.00269442 50926
INTELSAT 16 (IS-16)     
1 36397U 10006A   23353.51332137 -.00000235  00000+0  00000+0 0  9995
2 36397   0.0168 356.2976 0002011 271.5107 288.6295  1.00269566 50527
EWS-G2 (GOES 15)        
1 36411U 10008A   23353.52931987  .00000048  00000+0  00000+0 0  9994
2 36411   0.1514 270.7146 0006158 345.2934  83.6607  1.00272730 50518
ECHOSTAR 14             
1 36499U 10010A   23353.50604910  .00000010  00000+0  00000+0 0  9993
2 36499   0.0191 326.5510 0002169 301.3386 243.2383  1.00270439 37425
SES-1                   
1 36516U 10016A   23353.49905436 -.00000105  00000+0  00000+0 0  9990
2 36516   0.0130 356.4828 0002574 277.7702 252.2419  1.00270351 49909
ASTRA 3B                
1 36581U 10021A   23353.52183591  .00000146  00000+0  00000+0 0  9996
2 36581   0.0464  10.5445 0001926 256.8818  31.8023  1.00269982 49742
COMSATBW-2              
1 36582U 10021B   23353.51974737  .00000098  00000+0  00000+0 0  9992
2 36582   0.0547  53.4885 0003510 226.4770   8.2300  1.00273731 49822
BEIDOU-2 G3             
1 36590U 10024A   23353.53297483 -.00000128  00000+0  00000+0 0  9997
2 36590   2.4063  58.7985 0006078 321.1800 339.4117  1.00271144 49638
BADR-5                  
1 36592U 10025A   23353.56716247  .00000153  00000+0  00000+0 0  9994
2 36592   0.0472 131.5683 0002998  85.0957 101.3962  1.00269461 44086
COMS 1                  
1 36744U 10032A   23353.58569377 -.00000336  00000+0  00000+0 0  9997
2 36744   2.4782  87.0816 0000882 188.5976 151.2733  1.00269251 41958
ARABSAT-5A              
1 36745U 10032B   23353.56681525  .00000162  00000+0  00000+0 0  9992
2 36745   0.0771  57.0032 0002450 211.3024  54.1449  1.00273336 49514
ECHOSTAR 15             
1 36792U 10034A   23353.50486648 -.00000273  00000+0  00000+0 0  9993
2 36792   0.0405  79.2871 0002257 156.4129 332.2532  1.00272174 49193
BEIDOU-2 IGSO-1         
1 36828U 10036A   23352.44964000 -.00000059  00000+0  00000+0 0  9992
2 36828  54.2408 171.2133 0038426 190.7428 355.1891  1.00279420 49060
NILESAT 201             
1 36830U 10037A   23353.44493653 -.00000049  00000+0  00000+0 0  9997
2 36830   0.0383 217.1256 0004438  30.3884 353.4450  1.00271160 49235
RASCOM-QAF 1R           
1 36831U 10037B   23353.44493653  .00000028  00000+0  00000+0 0  9994
2 36831   0.0754  97.2865 0007057 167.8580 345.7251  1.00272893 49169
